$$SOE
2461295.500000000, A.D. 2026-Sep-12 00:00:00.0000, -1.069617276069441E+08, 2.976749428873242E+08, 1.484012661814801E+07,
2461302.500000000, A.D. 2026-Sep-19 00:00:00.0000, -1.185120520094402E+08, 2.929378963667035E+08, 1.416828860929990E+07,
2461309.500000000, A.D. 2026-Sep-26 00:00:00.0000, -1.298807334191466E+08, 2.877516815790159E+08, 1.347472120316531E+07,
2461316.500000000, A.D. 2026-Oct-03 00:00:00.0000, -1.410497207721512E+08, 2.821228814753487E+08, 1.276042413779384E+07,
2461323.500000000, A.D. 2026-Oct-10 00:00:00.0000, -1.520011796235071E+08, 2.760588462143686E+08, 1.202643733039303E+07,
2461330.500000000, A.D. 2026-Oct-17 00:00:00.0000, -1.627175281567664E+08, 2.695676884933382E+08, 1.127383940774757E+07,
2461337.500000000, A.D. 2026-Oct-24 00:00:00.0000, -1.731814733596561E+08, 2.626582768558303E+08, 1.050374610479562E+07,
2461344.500000000, A.D. 2026-Oct-31 00:00:00.0000, -1.833760471468093E+08, 2.553402268697543E+08, 9.717308518525541E+06,
2461351.500000000, A.D. 2026-Nov-07 00:00:00.0000, -1.932846419647778E+08, 2.476238902181783E+08, 8.915711194630429E+06,
2461358.500000000, A.D. 2026-Nov-14 00:00:00.0000, -2.028910455492921E+08, 2.395203425675363E+08, 8.100170104339063E+06,
2461365.500000000, A.D. 2026-Nov-21 00:00:00.0000, -2.121794765175728E+08, 2.310413708852900E+08, 7.271930737218827E+06,
2461372.500000000, A.D. 2026-Nov-28 00:00:00.0000, -2.211346216590407E+08, 2.221994572053970E+08, 6.432266159865931E+06,
2461379.500000000, A.D. 2026-Dec-05 00:00:00.0000, -2.297416711562707E+08, 2.130077581910536E+08, 5.582474660661846E+06,
2461386.500000000, A.D. 2026-Dec-12 00:00:00.0000, -2.379863514344831E+08, 2.034800836155203E+08, 4.723877226653844E+06,
2461393.500000000, A.D. 2026-Dec-19 00:00:00.0000, -2.458549573998486E+08, 1.936308738068990E+08, 3.857815032251045E+06,
2461400.500000000, A.D. 2026-Dec-26 00:00:00.0000, -2.533343840709280E+08, 1.834751752425395E+08, 2.985646888311990E+06,
2461407.500000000, A.D. 2027-Jan-02 00:00:00.0000, -2.604121571839461E+08, 1.730286141608097E+08, 2.108746618228294E+06,
2461414.500000000, A.D. 2027-Jan-09 00:00:00.0000, -2.670764625099306E+08, 1.623073682751549E+08, 1.228500360583186E+06,
2461421.500000000, A.D. 2027-Jan-16 00:00:00.0000, -2.733161737065074E+08, 1.513281366665539E+08, 3.463038061428666E+05,
2461428.500000000, A.D. 2027-Jan-23 00:00:00.0000, -2.791208785313664E+08, 1.401081078863105E+08, -5.364406268379763E+05,
2461435.500000000, A.D. 2027-Jan-30 00:00:00.0000, -2.844809031243804E+08, 1.286649263078990E+08, -1.418326689077258E+06,
2461442.500000000, A.D. 2027-Feb-06 00:00:00.0000, -2.893873338426423E+08, 1.170166571767815E+08, -2.297947269994266E+06,
2461449.500000000, A.D. 2027-Feb-13 00:00:00.0000, -2.938320370206926E+08, 1.051817517038827E+08, -3.173897289973706E+06,
2461456.500000000, A.D. 2027-Feb-20 00:00:00.0000, -2.978076789350650E+08, 9.317901154612358E+07, -4.044776354386348E+06,
2461463.500000000, A.D. 2027-Feb-27 00:00:00.0000, -3.013077444979213E+08, 8.102754960333930E+07, -4.909191551133797E+06,
2461470.500000000, A.D. 2027-Mar-06 00:00:00.0000, -3.043265515760297E+08, 6.874674920032698E+07, -5.765760500320889E+06,
2461477.500000000, A.D. 2027-Mar-13 00:00:00.0000, -3.068592624543781E+08, 5.635622384008926E+07, -6.613114329378517E+06,
2461484.500000000, A.D. 2027-Mar-20 00:00:00.0000, -3.089018935200721E+08, 4.387577683083835E+07, -7.449900527408589E+06,
2461491.500000000, A.D. 2027-Mar-27 00:00:00.0000, -3.104513229288300E+08, 3.132536038383722E+07, -8.274785731600698E+06,
2461498.500000000, A.D. 2027-Apr-03 00:00:00.0000, -3.115052960278127E+08, 1.872503428244588E+07, -9.086458457235727E+06,
2461505.500000000, A.D. 2027-Apr-10 00:00:00.0000, -3.120624284668271E+08, 6.094924295374265E+06, -9.883631764688782E+06,
2461512.500000000, A.D. 2027-Apr-17 00:00:00.0000, -3.121222069843758E+08, -6.544819525924779E+06, -1.066504585742626E+07,
2461519.500000000, A.D. 2027-Apr-24 00:00:00.0000, -3.116849878086451E+08, -1.917406457074677E+07, -1.142947061494043E+07,
2461526.500000000, A.D. 2027-May-01 00:00:00.0000, -3.107519924012253E+08, -3.177273722923318E+07, -1.217570807780757E+07,
2461533.500000000, A.D. 2027-May-08 00:00:00.0000, -3.093253002710626E+08, -4.432086338811233E+07, -1.290259484401960E+07,
2461540.500000000, A.D. 2027-May-15 00:00:00.0000, -3.074078403988572E+08, -5.679860676282079E+07, -1.360900415380356E+07,
2461547.500000000, A.D. 2027-May-22 00:00:00.0000, -3.050033828925773E+08, -6.918630752065596E+07, -1.429384772483714E+07,
2461554.500000000, A.D. 2027-May-29 00:00:00.0000, -3.021165275910616E+08, -8.146452253177176E+07, -1.495607776034272E+07,
2461561.500000000, A.D. 2027-Jun-05 00:00:00.0000, -2.987526888091021E+08, -9.361406398636839E+07, -1.559468894944551E+07,
2461568.500000000, A.D. 2027-Jun-12 00:00:00.0000, -2.949180783095419E+08, -1.056160358247619E+08, -1.620872023414999E+07,
2461575.500000000, A.D. 2027-Jun-19 00:00:00.0000, -2.906196869214397E+08, -1.174518688089749E+08, -1.679725638471945E+07,
2461582.500000000, A.D. 2027-Jun-26 00:00:00.0000, -2.858652646284226E+08, -1.291033544007669E+08, -1.735942942838379E+07,
2461589.500000000, A.D. 2027-Jul-03 00:00:00.0000, -2.806632991063964E+08, -1.405526773464931E+08, -1.789441994119988E+07,
2461596.500000000, A.D. 2027-Jul-10 00:00:00.0000, -2.750229927870452E+08, -1.517824468765973E+08, -1.840145820417957E+07,
2461603.500000000, A.D. 2027-Jul-17 00:00:00.0000, -2.689542385265428E+08, -1.627757264856535E+08, -1.887982522926305E+07,
2461610.500000000, A.D. 2027-Jul-24 00:00:00.0000, -2.624675938421342E+08, -1.735160622934008E+08, -1.932885367451101E+07,
2461617.500000000, A.D. 2027-Jul-31 00:00:00.0000, -2.555742534267697E+08, -1.839875096988102E+08, -1.974792866758951E+07,
2461624.500000000, A.D. 2027-Aug-07 00:00:00.0000, -2.482860202647240E+08, -1.941746571321920E+08, -2.013648842611928E+07,
2461631.500000000, A.D. 2027-Aug-14 00:00:00.0000, -2.406152777702022E+08, -2.040626471253390E+08, -2.049402448629507E+07,
2461638.500000000, A.D. 2027-Aug-21 00:00:00.0000, -2.325749624525055E+08, -2.136371980435642E+08, -2.082008187446256E+07,
2461645.500000000, A.D. 2027-Aug-28 00:00:00.0000, -2.241785338016587E+08, -2.228846252674493E+08, -2.111425944206202E+07,
2461652.500000000, A.D. 2027-Sep-04 00:00:00.0000, -2.154399426985393E+08, -2.317918593187450E+08, -2.137621005504698E+07,
2461659.500000000, A.D. 2027-Sep-11 00:00:00.0000, -2.063735998616019E+08, -2.403464615941880E+08, -2.160564056764063E+07,
2461666.500000000, A.D. 2027-Sep-18 00:00:00.0000, -1.969943443078007E+08, -2.485366383688560E+08, -2.180231165021881E+07,
2461673.500000000, A.D. 2027-Sep-25 00:00:00.0000, -1.873174117067017E+08, -2.563512531700422E+08, -2.196603750449499E+07,
2461680.500000000, A.D. 2027-Oct-02 00:00:00.0000, -1.773584026614620E+08, -2.637798375265661E+08, -2.209668547729088E+07,
2461687.500000000, A.D. 2027-Oct-09 00:00:00.0000, -1.671332510016041E+08, -2.708126001321772E+08, -2.219417558108824E+07,
2461694.500000000, A.D. 2027-Oct-16 00:00:00.0000, -1.566581921235813E+08, -2.774404345098618E+08, -2.225847993561696E+07,
2461701.500000000, A.D. 2027-Oct-23 00:00:00.0000, -1.459497312047268E+08, -2.836549252155608E+08, -2.228962215764976E+07,
2461708.500000000, A.D. 2027-Oct-30 00:00:00.0000, -1.350246109879558E+08, -2.894483520129316E+08, -2.228767668728127E+07,
2461715.500000000, A.D. 2027-Nov-06 00:00:00.0000, -1.238997803666336E+08, -2.948136909478024E+08, -2.225276785828677E+07,
2461722.500000000, A.D. 2027-Nov-13 00:00:00.0000, -1.125923658223647E+08, -2.997446144669487E+08, -2.218506870897959E+07,
2461729.500000000, A.D. 2027-Nov-20 00:00:00.0000, -1.011196428841938E+08, -3.042354928406852E+08, -2.208479998749623E+07,
2461736.500000000, A.D. 2027-Nov-27 00:00:00.0000, -8.949900606069803E+07, -3.082813939962645E+08, -2.195222926496392E+07,
2461743.500000000, A.D. 2027-Dec-04 00:00:00.0000, -7.774793932868493E+07, -3.118780809132520E+08, -2.178766990153898E+07,
2461750.500000000, A.D. 2027-Dec-11 00:00:00.0000, -6.588398777831975E+07, -3.150220076071379E+08, -2.159147989795728E+07,
2461757.500000000, A.D. 2027-Dec-18 00:00:00.0000, -5.392473018041170E+07, -3.177103141025864E+08, -2.136406068977258E+07,
2461764.500000000, A.D. 2027-Dec-25 00:00:00.0000, -4.188775235693042E+07, -3.199408204611598E+08, -2.110585590290296E+07,
2461771.500000000, A.D. 2028-Jan-01 00:00:00.0000, -2.979062133922878E+07, -3.217120199139658E+08, -2.081735007811069E+07,
$$EOE